[{"OBJECT_NAME":"ICEYE-X36","OBJECT_ID":"2024-043F","EPOCH":"2026-03-09T21:10:59.920608","MEAN_MOTION":15.05951442,"ECCENTRICITY":0.00048011,"INCLINATION":97.8198,"RA_OF_ASC_NODE":205.3571,"ARG_OF_PERICENTER":299.2298,"MEAN_ANOMALY":60.8448,"EPHEMERIS_TYPE":0,"CLASSIFICATION_TYPE":"U","NORAD_CAT_ID":59103,"ELEMENT_SET_NO":999,"REV_AT_EPOCH":11019,"BSTAR":0.00042378527,"MEAN_MOTION_DOT":6.107e-5,"MEAN_MOTION_DDOT":0},{"OBJECT_NAME":"STARLINK-34979","OBJECT_ID":"2025-179V","EPOCH":"2026-03-09T16:26:15.786816","MEAN_MOTION":15.05648512,"ECCENTRICITY":8.763e-5,"INCLINATION":97.6021,"RA_OF_ASC_NODE":112.898,"ARG_OF_PERICENTER":165.1317,"MEAN_ANOMALY":194.9936,"EPHEMERIS_TYPE":0,"CLASSIFICATION_TYPE":"U","NORAD_CAT_ID":65254,"ELEMENT_SET_NO":999,"REV_AT_EPOCH":3181,"BSTAR":5.3922991e-5,"MEAN_MOTION_DOT":7.17e-6,"MEAN_MOTION_DDOT":0}]
